[{"OBJECT_NAME":"STARLINK-3883","OBJECT_ID":"2022-049AU","EPOCH":"2026-03-09T23:08:10.628160","MEAN_MOTION":15.08836528,"ECCENTRICITY":0.00014296,"INCLINATION":53.2183,"RA_OF_ASC_NODE":47.888,"ARG_OF_PERICENTER":88.6984,"MEAN_ANOMALY":271.4172,"EPHEMERIS_TYPE":0,"CLASSIFICATION_TYPE":"U","NORAD_CAT_ID":52493,"ELEMENT_SET_NO":999,"REV_AT_EPOCH":21243,"BSTAR":-6.0357667e-5,"MEAN_MOTION_DOT":-1.248e-5,"MEAN_MOTION_DDOT":0},{"OBJECT_NAME":"FALCON 9 DEB","OBJECT_ID":"2021-041BJ","EPOCH":"2026-03-09T14:15:46.870272","MEAN_MOTION":15.11971801,"ECCENTRICITY":0.0009424,"INCLINATION":53.0285,"RA_OF_ASC_NODE":180.5194,"ARG_OF_PERICENTER":169.4294,"MEAN_ANOMALY":190.6897,"EPHEMERIS_TYPE":0,"CLASSIFICATION_TYPE":"U","NORAD_CAT_ID":48609,"ELEMENT_SET_NO":999,"REV_AT_EPOCH":26442,"BSTAR":0.00034424,"MEAN_MOTION_DOT":5.684e-5,"MEAN_MOTION_DDOT":0}]
